ACS3                    
1 59588U 24077B   24180.44034989  .00000069  00000+0  11556-3 0  9996
2 59588  97.4057 246.0069 0021407  66.0159 294.3230 13.67688414  8949
